name,address,lng,lat
안산양지초등학교,경기도 안산시 단원구 안산천남로 129(고잔동),126.834798,37.304744
시곡초등학교,경기도 안산시 상록구 감골1로 46(사동),126.852452,37.2888533
본오초등학교,경기도 안산시 상록구 각골서로 49(본오동),126.868676,37.2945332
본원초등학교,경기도 안산시 상록구 샘골로 83(본오동),126.861983,37.2911685
각골초등학교,경기도 안산시 상록구 석호로 384(본오동),126.873349,37.292617
팔곡초등학교,경기도 안산시 상록구 팔곡두레길 71(팔곡이동),126.882845,37.297364
안산창촌초등학교,경기도 안산시 상록구 건건5길 7(건건동),126.904557,37.3076922
안산초등학교,경기도 안산시 상록구 수암2길 13-7(수암동),126.878095,37.3647522
상록초등학교,경기도 안산시 상록구 본오로 157(본오동),126.865915,37.2988338
이호초등학교,경기도 안산시 상록구 고목로3길 44(본오동),126.860597,37.2867093
정재초등학교,경기도 안산시 상록구 정재초교길 11(부곡동),126.86441,37.3381245
안산부곡초등학교,경기도 안산시 상록구 부곡로 73(부곡동),126.860124,37.3290221
시랑초등학교,경기도 안산시 상록구 충장로 670(부곡동),126.855866,37.3361983
석호초등학교,경기도 안산시 상록구 석호로 113(사동),126.848221,37.3008045
초당초등학교,경기도 안산시 상록구 초당로 25(사동),126.85111,37.2853572
경일초등학교,경기도 안산시 상록구 성포로 47(성포동),126.847682,37.323922
성포초등학교,경기도 안산시 상록구 안산천동로 90(성포동),126.842536,37.3240429
경수초등학교,경기도 안산시 상록구 삼일로 670(성포동),126.850609,37.3269927
삼일초등학교,경기도 안산시 상록구 월피로 42(월피동),126.850643,37.3323379
안산광덕초등학교,경기도 안산시 상록구 안산천서로3길 6-7(월피동),126.843878,37.3328862
학현초등학교,경기도 안산시 상록구 석호로 6(이동),126.847059,37.3108044
대전가장초등학교,대전광역시 서구 가장로 150(가장동),127.387881,36.3305372
신곡초등학교,경기도 김포시 고촌읍 수기로 67-30,126.766089,37.5965423
증포초등학교,경기도 이천시 이섭대천로 1418(증포동),127.456967,37.2942755
마송중앙초등학교,경기도 김포시 통진읍 마송1로 140,126.593975,37.6894042
마송초등학교,경기도 김포시 통진읍 흥신로 315,126.606551,37.6844267
통진초등학교,경기도 김포시 통진읍 조강로 116,126.594437,37.6937255
금란초등학교,경기도 김포시 고촌읍 장곡로 42,126.751173,37.6075672
학운초등학교,경기도 김포시 양촌읍 황금로70번길 13,126.624635,37.6209923
양곡초등학교,경기도 김포시 양촌읍 양곡로 548,126.62238,37.6554203
신양초등학교,경기도 김포시 양촌읍 양곡3로 47,126.63409,37.6558897
대곶초등학교,경기도 김포시 대곶면 율생중앙로36번길 19,126.584605,37.6520092
석정초등학교,경기도 김포시 대곶면 대곶로331번길 10,126.55435,37.6735637
옹정초등학교,경기도 김포시 통진읍 옹정로185번길 26,126.563921,37.6939437
개곡초등학교,경기도 김포시 월곶면 애기봉로 445,126.593465,37.7321415
하성초등학교,경기도 김포시 하성면 애기봉로 857,126.632844,37.7201072
설봉초등학교,경기도 이천시 향교로 129(창전동),127.452774,37.2845242
이천송정초등학교,경기도 이천시 영창로45번길 165(송정동),127.433225,37.294211
안흥초등학교,경기도 이천시 영창로300번길 16(안흥동),127.456695,37.2802439
한내초등학교,경기도 이천시 갈산로 71(증포동),127.461654,37.2900422
이천단월초등학교,경기도 이천시 단월로 98(단월동),127.451248,37.2273955
이천남초등학교,경기도 이천시 경충대로2614번길 32(중리동),127.444115,37.2765272
창현초등학교,경기도 남양주시 화도읍 녹촌로 12,127.302115,37.6455702
진접초등학교,경기도 남양주시 진접읍 해밀예당2로 102,127.199804,37.717068
주곡초등학교,경기도 남양주시 진접읍 해밀예당1로 277,127.205905,37.7246868
화봉초등학교,경기도 남양주시 진접읍 해밀예당2로 21,127.191753,37.7158418
풍양초등학교,경기도 남양주시 진접읍 내각1로 31-1,127.161659,37.7019183
부평초등학교,경기도 남양주시 진접읍 부평로48번길 27,127.201531,37.7379566
장승초등학교,경기도 남양주시 진접읍 금강로1576번길 12,127.195546,37.730086
장현초등학교,경기도 남양주시 진접읍 장현천로 37,127.182189,37.7191728
광릉초등학교,경기도 남양주시 진접읍 광릉내로82번길 29,127.20727,37.7456089
어람초등학교,경기도 남양주시 오남읍 진건오남로550번길 25,127.212738,37.6823929
예봉초등학교,경기도 남양주시 와부읍 수레로 108,127.221318,37.5923181
와부초등학교,경기도 남양주시 와부읍 월문천로 63,127.218539,37.5863257
남양주월문초등학교,경기도 남양주시 와부읍 수레로 519,127.261873,37.6091305
도심초등학교,경기도 남양주시 와부읍 석실로 45,127.227792,37.5805477
심석초등학교,경기도 남양주시 화도읍 마석로76번길 10,127.307051,37.6575523
마석초등학교녹촌분교장,경기도 남양주시 화도읍 가구단지6길 63-12,127.286489,37.6520807
화접초등학교,경기도 남양주시 별내중앙로 148(별내동),127.115982,37.6530546
별내초등학교,경기도 남양주시 별내면 청학로92번길 38,127.118412,37.7111183
근화초등학교,강원도 춘천시 소양로163번길 23(근화동),127.72299,37.8891154
호반초등학교,강원도 춘천시 후만로126번길 35(후평동),127.760737,37.8745534
신남초등학교,강원도 춘천시 칠전서길 37(칠전동),127.711758,37.8425095
석사초등학교,강원도 춘천시 공지로 126(석사동),127.749422,37.8578855
봄내초등학교,강원도 춘천시 퇴계로 220-10(석사동),127.74193,37.8558293
성림초등학교,강원도 춘천시 지석로 47(석사동),127.740349,37.8522402
우석초등학교,강원도 춘천시 애막골길16번길 6(석사동),127.749873,37.8645242
남춘천초등학교,강원도 춘천시 충혼길 33(온의동),127.722108,37.8609726
소양초등학교,강원도 춘천시 충열로 134(우두동),127.739929,37.9047504
남부초등학교,강원도 춘천시 춘주로 159(퇴계동),127.726705,37.8587926
동춘천초등학교,강원도 춘천시 성심로 77(효자동),127.742855,37.8772184
부안초등학교,강원도 춘천시 서부대성로239번길 70(후평동),127.74989,37.8766743
후평초등학교,강원도 춘천시 춘천로295번길 17(후평동),127.744156,37.8827158
동부초등학교,강원도 춘천시 서부대성로 339(후평동),127.754782,37.8708167
성원초등학교,강원도 춘천시 승지골길16번길 36(퇴계동),127.744584,37.8482999
천전초등학교,강원도 춘천시 신북읍 율문1길 16-9,127.745508,37.9273882
오동초등학교,강원도 춘천시 신북읍 장본길 74,127.758162,37.9514188
상천초등학교,강원도 춘천시 신북읍 상천2길 19,127.785424,37.9335917
금병초등학교,강원도 춘천시 신동면 김유정로 1394,127.714444,37.815166
금산초등학교,강원도 춘천시 서면 금산2길 21,127.699587,37.9032493
당림초등학교,강원도 춘천시 서면 당숲안길 81,127.607843,37.83763
서상초등학교,강원도 춘천시 서면 박사로 1348,127.707289,37.9289032
조양초등학교,강원도 춘천시 동산면 조양길 257,127.795621,37.7512003
다문초등학교,경기도 양평군 용문면 다문중앙2길 27,127.591646,37.4857915
대전봉산초등학교,대전광역시 서구 신갈마로141번길 45(갈마동),127.365267,36.3453547
대전선암초등학교,대전광역시 서구 관저중로 61(관저동),127.333535,36.2971614
대전구봉초등학교,대전광역시 서구 관저로 75(관저동),127.329404,36.2995259
대전금동초등학교,대전광역시 서구 관저로 45(관저동),127.325577,36.2980967
대전관저초등학교,대전광역시 서구 관저동로 161(관저동),127.339334,36.3062177
대전느리울초등학교,대전광역시 서구 관저로 196(관저동),127.343483,36.2982387
대전도마초등학교,대전광역시 서구 배재로172번길 23(도마동),127.371193,36.324416
대전유천초등학교,대전광역시 서구 제비네6길 69(도마동),127.37518,36.3148101
대전둔산초등학교,대전광역시 서구 둔산로74번길 20(둔산동),127.380881,36.3499295
한밭초등학교,대전광역시 서구 문정로 221(둔산동),127.393991,36.353948
대전만년초등학교,대전광역시 서구 만년남로 14(만년동),127.376825,36.3665863
대전둔천초등학교,대전광역시 서구 만년로 3(만년동),127.373607,36.3680343
대전서부초등학교,대전광역시 서구 동서대로 968(변동),127.368975,36.3330337
대전복수초등학교,대전광역시 서구 복수중로34번길 29(복수동),127.376687,36.307763
대전문정초등학교,대전광역시 서구 문정로 180(둔산동),127.395442,36.3504964
대전삼천초등학교,대전광역시 서구 둔산북로 232-33(둔산동),127.400439,36.3540132
대전성천초등학교,대전광역시 서구 갈마역로 139(월평동),127.373107,36.3626823
대전성룡초등학교,대전광역시 서구 갈마역로 125(월평동),127.373018,36.3614641
대전정림초등학교,대전광역시 서구 정림로 32(정림동),127.366145,36.3031283
대전신계초등학교,대전광역시 서구 복수동로 26(복수동),127.377872,36.3017349
대전삼육초등학교,대전광역시 서구 도림1길 15(도마동),127.372585,36.3116739
대전상원초등학교,대전광역시 유성구 상대서로 46(상대동),127.332975,36.3425014
중남초등학교,울산광역시 울주군 삼남면 사촌신복로 572,129.108236,35.5365503
성신초등학교,경기도 고양시 덕양구 성신로 104(행신동),126.840305,37.6265954
행신초등학교,경기도 고양시 덕양구 중앙로 527(행신동),126.836993,37.6217063
대곡초등학교,경기도 고양시 덕양구 대주로 138-50(대장동),126.812615,37.6410069
백양초등학교,경기도 고양시 덕양구 화신로 238(화정동),126.836101,37.6317619
지도초등학교,경기도 고양시 덕양구 성신로 49(화정동),126.833917,37.6279291
고양화수초등학교,경기도 고양시 덕양구 화수로 25(화정동),126.832731,37.6451448
화중초등학교,경기도 고양시 덕양구 화중로152번길 43(화정동),126.835998,37.6405369
고양화정초등학교,경기도 고양시 덕양구 화신로 333(화정동),126.826111,37.6337354
용정초등학교,경기도 고양시 덕양구 은빛로17번길 53(화정동),126.829577,37.6402842
고양초등학교,경기도 고양시 덕양구 혜음로13번길 22-7(고양동),126.899934,37.7030317
목암초등학교,경기도 고양시 덕양구 푸른마을로 63(고양동),126.90466,37.714005
성라초등학교,경기도 고양시 덕양구 호국로716번길 13-19(성사동),126.833651,37.6523492
내유초등학교,경기도 고양시 덕양구 통일로 1132(내유동),126.851857,37.7153948
고양관산초등학교,경기도 고양시 덕양구 통일로726번길 130(관산동),126.866547,37.6919217
성사초등학교,경기도 고양시 덕양구 호국로834번길 89(성사동),126.844305,37.6576405
토당초등학교,경기도 고양시 덕양구 행신로 90(토당동),126.826301,37.6172937
소만초등학교,경기도 고양시 덕양구 화신로 48(행신동),126.839755,37.6174786
가람초등학교,경기도 고양시 덕양구 행신로311번길 78(행신동),126.842189,37.6233972
남양주덕송초등학교,경기도 남양주시 별내3로 356(별내동),127.115854,37.6693466
가운초등학교,경기도 남양주시 가운로2길 54(가운동),127.155796,37.6007077
금교초등학교,경기도 남양주시 미금로 194(도농동),127.161469,37.6139033
구룡초등학교,경기도 남양주시 늘을3로 120(호평동),127.252628,37.6581346
이동초등학교,경기도 포천시 이동면 화동로 2034,127.368476,38.028608
청성초등학교,경기도 포천시 군내면 솔밭길 12-1,127.223374,37.874679
영중초등학교,경기도 포천시 영중면 호국로 3054,127.248403,38.0146045
금주초등학교,경기도 포천시 영중면 궁들길 50,127.260534,37.9734698
영북초등학교,경기도 포천시 영북면 영북로148번길 46,127.276311,38.0904351
왕방초등학교,경기도 포천시 학동로 52(신읍동),127.202334,37.9042268
외북초등학교,경기도 포천시 신북면 포천로 2199,127.187484,37.9465626
신북초등학교,경기도 포천시 신북면 청신로 2079-19,127.220236,37.9383955
창수초등학교,경기도 포천시 창수면 옥수로58번길 4,127.181965,37.9897631
관인초등학교,경기도 포천시 관인면 관인로 5,127.251148,38.1567607
포천삼정초등학교,경기도 포천시 신북면 청신로947번길 17,127.131459,37.9640567
중리초등학교,경기도 포천시 관인면 창동로1071번길 21-52,127.204429,38.1055942
가평마장초등학교,경기도 가평군 가평읍 각담말길 15,127.514601,37.8600748
상색초등학교,경기도 가평군 가평읍 태봉두밀로 34-31,127.485061,37.8052976
대성초등학교,경기도 가평군 청평면 경춘로 75,127.377715,37.682755
상천초등학교,경기도 가평군 청평면 상천역로19번길 38,127.456233,37.7703749
청평초등학교,경기도 가평군 유명로 2285 이투스학원,127.421886,37.7377012
연하초등학교,경기도 가평군 상면 비룡로 2199-19,127.342505,37.8031925
상면초등학교,경기도 가평군 상면 청군로 700-22,127.371138,37.7760635
조종초등학교,경기도 가평군 하면 조종새싹로 13-9,127.349092,37.8213646
목동초등학교,경기도 가평군 북면 석장모루길 13,127.549282,37.8799032
조현초등학교,경기도 양평군 용문면 중원산로 157,127.616134,37.5225264
양평단월초등학교,경기도 양평군 단월면 보룡길 65,127.672681,37.5393241
청운초등학교,경기도 양평군 청운면 용두로156번길 30,127.713385,37.5545705
곡수초등학교,경기도 양평군 지평면 곡수길56번길 17,127.611489,37.4183557
지평초등학교,경기도 양평군 지평면 지평의병로 107,127.637737,37.4756212
양동초등학교,경기도 양평군 양동면 양동로 1671,127.749885,37.4304294
개군초등학교,경기도 양평군 개군면 자진개1길 23,127.534347,37.4278354
강상초등학교,경기도 양평군 강상면 신화길 86,127.479153,37.4735728
세월초등학교,경기도 양평군 강상면 세월길147번길 2,127.494659,37.4364668
강하초등학교,경기도 양평군 강하면 운심길 33,127.409441,37.4963562
수입초등학교,경기도 양평군 서종면 무드리2길 20,127.375311,37.6448297
정배초등학교,경기도 양평군 서종면 명덕길 10,127.422961,37.6028528
양동초등학교고송분교장,경기도 양평군 양동면 고송길 32-16,127.699916,37.48657
모당초등학교,경기도 고양시 일산동구 하늘마을로 144(중산동),126.781303,37.6795306
하늘초등학교,경기도 고양시 일산동구 하늘마을1로 46(중산동),126.790137,37.6772518
풍산초등학교,경기도 고양시 일산동구 숲속마을로 51(풍동),126.796966,37.6663923
다솜초등학교,경기도 고양시 일산동구 숲속마을로 139(풍동),126.796664,37.6725071
풍동초등학교,경기도 고양시 일산동구 숲속마을로 14-43(풍동),126.802608,37.669396
고양백석초등학교,경기도 고양시 일산동구 강촌로 140(백석동),126.78928,37.6517894
새금초등학교,경기도 파주시 후곡로 104(금촌동),126.773168,37.7480758
저동초등학교,경기도 고양시 일산동구 대산로11번길 37(정발산동),126.774228,37.6678704
성석초등학교,경기도 고양시 일산동구 문봉길 110(문봉동),126.812218,37.7072274
백마초등학교,경기도 고양시 일산동구 일산로 230(마두동),126.791081,37.6574752
어룡초등학교,경기도 의정부시 부용로 241(용현동),127.082246,37.7477216
두서초등학교,울산광역시 울주군 두서면 인보로 87,129.158321,35.6428958
두동초등학교,울산광역시 울주군 두동면 대밀길 29,129.202258,35.654758
청량초등학교,울산광역시 울주군 청량면 덕정5길 14,129.297236,35.4866403
문수초등학교,울산광역시 울주군 청량면 청송길 8,129.240539,35.5191632
삼정초등학교,울산광역시 울주군 청량면 삼정로 36,129.233553,35.4908353
검단초등학교,울산광역시 울주군 웅촌면 은현작동로 58,129.177589,35.4576649
웅촌초등학교,울산광역시 울주군 웅촌면 곡천검단로 4,129.207226,35.4641775
성동초등학교,울산광역시 울주군 서생면 진하길 7,129.341718,35.3854334
명산초등학교,울산광역시 울주군 서생면 화산발리로 60,129.295792,35.3509377
서생초등학교,울산광역시 울주군 서생면 신암해안길 58,129.327071,35.3492421
삼동초등학교,울산광역시 울주군 삼동면 삼동로 788,129.15911,35.5239153
상북초등학교소호분교,울산광역시 울주군 상북면 소호당리길 1,129.086281,35.6705174
곡정초등학교,경기도 수원시 권선구 곡선로 7(권선동),127.02569,37.2408603
선행초등학교,경기도 수원시 권선구 세권로196번길 21(권선동),127.025672,37.2542509
수원중촌초등학교,경기도 수원시 권선구 금곡로140번길 30(금곡동),126.944374,37.2724561
광교초등학교,경기도 수원시 영통구 대학로 91(이의동),127.045839,37.3037928
이의초등학교,경기도 수원시 영통구 법조로150번길 47(하동),127.075458,37.2929807
수성초등학교,경기도 수원시 장안구 금당로 19(조원동),127.014008,37.3055569
송원초등학교,경기도 수원시 장안구 수일로 185(조원동),127.009938,37.3083092
한일초등학교,경기도 수원시 장안구 수일로 150(조원동),127.005405,37.3069114
효천초등학교,경기도 수원시 장안구 천천로21번길 11(정자동),126.986631,37.2932545
야탑초등학교,경기도 성남시 분당구 양현로 400(야탑동),127.125884,37.4163135
덕도초등학교,경기도 양주시 광적면 광적로224번길 122,126.977264,37.8404432
봉암초등학교,경기도 양주시 은현면 삼육사로 473,127.005868,37.9105075
상패초등학교,경기도 양주시 은현면 은현로312번길 121-208,127.026507,37.8978836
은현초등학교,경기도 양주시 은현면 화합로 912-20,127.023078,37.8643435
상수초등학교,경기도 양주시 남면 화합로 503,126.987733,37.8686306
남면초등학교,경기도 양주시 남면 개나리18길 100,126.975062,37.8940365
남면초등학교양덕분교장,경기도 양주시 남면 은남로119번길 373,126.99867,37.9086297
선단초등학교,경기도 포천시 삼육사로2111번길 29(선단동),127.155356,37.8616424
포천초등학교,경기도 포천시 신읍길 40(신읍동),127.197184,37.8967586
이곡초등학교,경기도 포천시 소흘읍 이곡길 5,127.148857,37.7782698
추산초등학교,경기도 포천시 소흘읍 솔모루로3번길 52-20,127.136715,37.8257644
태봉초등학교,경기도 포천시 소흘읍 송선로 8,127.144883,37.8345186
신봉초등학교,경기도 포천시 소흘읍 송우로 98,127.138893,37.8318531
송우초등학교,경기도 포천시 소흘읍 송우로 42,127.143385,37.8295161
축석초등학교,경기도 포천시 소흘읍 무란1길 25,127.122108,37.7881923
유암초등학교,경기도 포천시 가산면 유교로88번길 8,127.192626,37.8684898
정교초등학교,경기도 포천시 가산면 정금로 77,127.169683,37.8152429
내촌초등학교,경기도 포천시 내촌면 내촌로 88,127.23007,37.7868827
지현초등학교,경기도 포천시 화현면 봉화로 926-9,127.264839,37.9285908
화현초등학교,경기도 포천시 화현면 달인동로1길 29,127.284673,37.9018988
일동초등학교,경기도 포천시 일동면 화동로 1019,127.314509,37.9549201
운담초등학교,경기도 포천시 일동면 화동로 1239,127.329557,37.9719185
포천노곡초등학교,경기도 포천시 이동면 성장로869번길 4,127.335389,38.0081356
마전초등학교,경기도 안성시 삼죽면 서동대로 5915,127.34132,37.0306966
삼죽초등학교,경기도 안성시 삼죽면 삼죽초교길 20,127.373702,37.0759917
일죽초등학교,경기도 안성시 일죽면 주래본죽로 72,127.481942,37.0921024
방초초등학교,경기도 안성시 일죽면 사실로 86,127.433534,37.1197988
죽화초등학교,경기도 안성시 일죽면 죽화로 297,127.458334,37.1074878
고삼초등학교,경기도 안성시 고삼면 고삼호수로 37,127.264514,37.0825482
미곡초등학교,경기도 안성시 양성면 안성맞춤대로 2304-9,127.245162,37.1104881
원곡초등학교성은분교장,경기도 안성시 원곡면 통심길 92,127.160074,37.0770979
금광초등학교조령분교장,경기도 안성시 금광면 사흥길 59,127.357958,37.0009596
보개초등학교가율분교장,경기도 안성시 보개면 보개원삼로 649,127.295863,37.0601739
세종초등학교,경기도 여주시 세종로 204-19(교동),127.633757,37.2796966
연라초등학교,경기도 여주시 여주남로 116(월송동),127.611574,37.277869
점봉초등학교,경기도 여주시 세종로 488-4(점봉동),127.644847,37.2569409
여흥초등학교,경기도 여주시 여양로 103(상동),127.643728,37.2936942
여주초등학교,경기도 여주시 청심로 139(창동),127.635979,37.2985007
오학초등학교,경기도 여주시 도예로 117(오학동),127.647397,37.3124123
매류초등학교,경기도 여주시 능서면 양화로 592,127.557437,37.2736696
능서초등학교,경기도 여주시 능서면 마장로 64,127.572094,37.2979453
문장초등학교,경기도 여주시 흥천면 문바실길 20,127.512246,37.3607109
흥천초등학교,경기도 여주시 흥천면 효자로 155,127.541216,37.3323515
이포초등학교,경기도 여주시 금사면 이여로 1237,127.530078,37.3886539
송양초등학교,경기도 의정부시 민락로 349(낙양동),127.111745,37.7528188
민락초등학교,경기도 의정부시 용현로159번길 26(민락동),127.094777,37.7418086
의정부부용초등학교,경기도 의정부시 오목로 83(민락동),127.090886,37.7361653
금릉초등학교,경기도 파주시 후곡로 56(금촌동),126.772939,37.7523441
금신초등학교,경기도 파주시 금신초교길 10(금촌동),126.771811,37.7670547
금향초등학교,경기도 파주시 쇠재로 123(금촌동),126.776942,37.7525118
검산초등학교,경기도 파주시 검산로 10(검산동),126.739458,37.7761017
파주송화초등학교,경기도 파주시 송화로 39(아동동),126.779052,37.7746351
금화초등학교,경기도 파주시 새꽃로 55(금촌동),126.768025,37.755104
금촌초등학교,경기도 파주시 동산3길 38-11(금촌동),126.769753,37.7617985
동패초등학교,경기도 파주시 교하로 272(동패동),126.74001,37.7173897
석곶초등학교,경기도 파주시 책향기로 451(동패동),126.722253,37.7250555
문발초등학교,경기도 파주시 노을빛로 21(문발동),126.706792,37.725698
지산초등학교,경기도 파주시 경의로 1274(와동동),126.761748,37.7313601
한가람초등학교,경기도 파주시 금바위로 87(와동동),126.755863,37.7318838
한빛초등학교,경기도 파주시 미래로408번길 77(야당동),126.750967,37.71465
덕암초등학교,경기도 파주시 조리읍 등원로 199,126.819631,37.7647407
능안초등학교,경기도 파주시 조리읍 능안로 145,126.792829,37.740584
파주대원초등학교,경기도 파주시 조리읍 대원로 30,126.819295,37.7272467
봉일천초등학교,경기도 파주시 조리읍 통일로 333,126.807247,37.7450284
교하초등학교,경기도 파주시 동편길 13(교하동),126.747313,37.7538678
청석초등학교,경기도 파주시 청석로 330(다율동),126.71928,37.731051
가산초등학교,강원도 춘천시 동면 가산로 52,127.782582,37.908693
이매초등학교,경기도 성남시 분당구 양현로 146(이매동),127.125942,37.3967336
성남장안초등학교,경기도 성남시 분당구 장안로51번길 10(분당동),127.144145,37.372132
한솔초등학교,경기도 성남시 분당구 돌마로 303(정자동),127.117857,37.3666226
늘푸른초등학교,경기도 성남시 분당구 정자일로 87(정자동),127.105304,37.3579592
중탑초등학교,경기도 성남시 분당구 벌말로 68(야탑동),127.139471,37.4136197
돌마초등학교,경기도 성남시 분당구 야탑로 96-7(야탑동),127.130025,37.4089552
하탑초등학교,경기도 성남시 분당구 양현로 262(야탑동),127.126252,37.4070081
내정초등학교,경기도 성남시 분당구 내정로174번길 19(수내동),127.122166,37.372818
성남정자초등학교,경기도 성남시 분당구 분당수서로 442(정자동),127.105082,37.3738436
수내초등학교,경기도 성남시 분당구 백현로243번길 12(수내동),127.124282,37.3675173
심곡초등학교,경기도 부천시 원미구 장말로 309(심곡동),126.77639,37.4918232
중동초등학교,경기도 부천시 원미구 심중로75번길 37(중동),126.76937,37.4899545
심원초등학교,경기도 부천시 원미구 옥산로 66(중동),126.781742,37.4995506
상인초등학교,경기도 부천시 원미구 도약로 61(상동),126.756469,37.5127749
석천초등학교,경기도 부천시 원미구 계남로 29(상동),126.752354,37.5105113
상일초등학교,경기도 부천시 원미구 조마루로 57(상동),126.750488,37.5017051
상미초등학교,경기도 부천시 원미구 상이로 64(상동),126.744565,37.4947121
상원초등학교,경기도 부천시 원미구 부흥로 93(상동),126.753444,37.498182
부천역곡초등학교,경기도 부천시 원미구 역곡로65번길 12(역곡동),126.807763,37.4907267
도당초등학교,경기도 부천시 원미구 삼작로268번길 21(도당동),126.791887,37.519396
부천신흥초등학교,경기도 부천시 원미구 길주로391번길 71(도당동),126.784638,37.506797
상동초등학교,경기도 부천시 원미구 부흥로 70(상동),126.75015,37.4967327
매화초등학교,경기도 안산시 상록구 안산대학로 35(이동),126.862654,37.3059109
이천가산초등학교,경기도 이천시 부발읍 황무로2065번길 112,127.518466,37.2419248
부발초등학교,경기도 이천시 부발읍 무촌로 155,127.488611,37.2866395
신하초등학교,경기도 이천시 부발읍 경충대로2250번길 12,127.478582,37.260806
아미초등학교,경기도 이천시 부발읍 신아로92번길 32,127.490696,37.2583354
장호원초등학교,경기도 이천시 장감로 46,127.627512,37.1158246
대서초등학교,경기도 이천시 장호원읍 서동대로8487번길 23-24,127.575968,37.11321
이황초등학교,경기도 이천시 장호원읍 경충대로 456-20,127.587462,37.1454031
표교초등학교,경기도 이천시 마장면 중부대로609번길 28-1,127.405526,37.2566148
마장초등학교,경기도 이천시 마장면 오천로 130,127.358566,37.2467554
이천매곡초등학교,경기도 이천시 호법면 이섭대천로96번길 8,127.394204,37.2146196
호법초등학교,경기도 이천시 호법면 이섭대천로537번길 8,127.427394,37.2240568
백사초등학교,경기도 이천시 백사면 현방로 55,127.489862,37.3386028
도지초등학교,경기도 이천시 백사면 청백리로 207,127.483074,37.308134
도암초등학교,경기도 이천시 신둔면 증신로 550,127.442196,37.3181314
신둔초등학교,경기도 이천시 신둔면 경충대로3150번길 82-3,127.403414,37.310022
이천사동초등학교,경기도 이천시 대월면 경충대로2003번길 124-87,127.487199,37.2420101
대월초등학교,경기도 이천시 대월면 대평로178번길 48,127.492992,37.2234179
진가초등학교,경기도 이천시 모가면 진상미로 1321-14,127.479445,37.1743741
송곡초등학교,경기도 이천시 모가면 진상미로 1054,127.48391,37.1520996
설성초등학교,경기도 이천시 설성면 진상미로264번길 21-165,127.53755,37.1099399
장천초등학교,경기도 이천시 설성면 설성로 165-25,127.528239,37.1455163
율면초등학교,경기도 이천시 고당로 48,127.542768,37.087855
퇴계원초등학교,경기도 남양주시 퇴계원면 퇴계원로59번길 16,127.141633,37.653515
도제원초등학교,경기도 남양주시 퇴계원면 경춘북로558번길 10-1,127.145768,37.645787
수동초등학교,경기도 남양주시 수동면 비룡로 832,127.323147,37.7118112
조안초등학교,경기도 남양주시 조안면 북한강로229번길 20,127.300479,37.5466064
수동초등학교송천분교장,경기도 남양주시 수동면 비룡로586번길 98,127.334259,37.6948917
장자초등학교,경기도 구리시 장자대로 40(교문동),127.135414,37.5866842
백문초등학교,경기도 구리시 장자대로13번길 12(교문동),127.132781,37.5882147
부양초등학교,경기도 구리시 장자대로 89-2(수택동),127.142021,37.5901023
내양초등학교,경기도 구리시 동구릉로 485(사노동),127.139416,37.6403707
토평초등학교,경기도 구리시 벌말로129번길 17-1(토평동),127.146467,37.5874854
도림초등학교,경기도 구리시 아차산로 431(교문동),127.130445,37.5933786
교문초등학교,경기도 구리시 안골로19번길 16(교문동),127.133667,37.5977363
구리초등학교,경기도 구리시 경춘로276번길 51(수택동),127.147833,37.6007677
건원초등학교,경기도 구리시 동구릉로80번길 15(인창동),127.135652,37.6072839
동인초등학교,경기도 구리시 동구릉로103번길 37(인창동),127.133745,37.6105948
동구초등학교,경기도 구리시 건원대로76번길 45(인창동),127.141716,37.6088509
구지초등학교,경기도 구리시 건원대로76번길 40(인창동),127.142324,37.6071793
수택초등학교,경기도 구리시 검배로136번길 41(토평동),127.15252,37.591935
배영초등학교,경기도 의정부시 가능로135번길 20(의정부동),127.046693,37.7478904
호암초등학교,경기도 의정부시 호암로 47(호원동),127.04661,37.7047577
만천초등학교,강원도 춘천시 동면 후석로326번길 89,127.757925,37.8842725
지촌초등학교,강원도 춘천시 사북면 지촌길 130,127.644885,38.0379538
동내초등학교,강원도 춘천시 동내면 동내로 131,127.766235,37.8511332
남산초등학교,강원도 춘천시 남산면 한치로 59,127.645669,37.7928411
춘천삼육초등학교,강원도 춘천시 동면 방죽길 56-10,127.75368,37.9110771
광판초등학교,강원도 춘천시 남산면 김유정로 159-12,127.698828,37.7306595
추곡초등학교,강원도 춘천시 북산면 북산로 34,127.882346,38.0244674
지촌초등학교지암분교장,강원도 춘천시 사북면 화악지암길 431,127.607172,37.9812108
남산초등학교서천분교장,강원도 춘천시 남산면 서백길 152,127.55521,37.8355819
중앙초등학교,강원도 원주시 남산로 181(학성동),127.939468,37.3526483
만대초등학교,강원도 원주시 만대로 65(무실동),127.920549,37.3392622
무실초등학교,강원도 원주시 만대로 155(무실동),127.9219,37.3349529
반곡초등학교,강원도 원주시 동부순환로 247(반곡동),127.973313,37.3374089
(가칭)원주특수학교,강원도 원주시 봉대길 33(반곡동),127.993879,37.3320706
명륜초등학교,강원도 원주시 행구로 25(개운동),127.958568,37.342114
단관초등학교,강원도 원주시 단관초교길 14(관설동),127.963771,37.3174185
관설초등학교,강원도 원주시 치악로 1355(관설동),127.976187,37.3086454
단계초등학교,강원도 원주시 북원로 2387(단계동),127.936425,37.3589012
북원초등학교,강원도 원주시 단구로 60(단계동),127.93773,37.3431961
평원초등학교,강원도 원주시 금불2길 20(단계동),127.931128,37.3500099
단구초등학교,강원도 원주시 단구초교길 5(단구동),127.963955,37.3224356
구곡초등학교,강원도 원주시 늘품로 64(단구동),127.952752,37.3249946
남원주초등학교,강원도 원주시 늘품로 28(단구동),127.951021,37.3225023
대전송촌초등학교,대전광역시 대덕구 동춘당로54번길 35(송촌동),127.443485,36.3645961
호동초등학교,경기도 안산시 상록구 성호로 70(일동),126.865339,37.3124461
안산해양초등학교,경기도 안산시 상록구 해양2로 28(사동),126.82377,37.294321
성안초등학교,경기도 안산시 상록구 삼리로 119(사동),126.853285,37.3050003
안산청석초등학교,경기도 안산시 상록구 해양1로 48(사동),126.818064,37.2944979
대동초등학교,경기도 안산시 단원구 솔따배기길 134-9(대부동동),126.600212,37.2409761
대부초등학교,경기도 안산시 단원구 대부중앙로 56 대부초등학교,126.581115,37.2455102
대남초등학교,경기도 안산시 단원구 대남로 298(대부남동),126.575847,37.2194752
대남초등학교풍도분교장,경기도 안산시 단원구 풍도길 28(풍도동),126.393191,37.1110334
구성초등학교,경기도 용인시 기흥구 구성로 51(마북동),127.114832,37.2953061
지석초등학교,경기도 용인시 기흥구 어정로 62-25(상하동),127.138753,37.269693
언동초등학교,경기도 용인시 기흥구 언남로 55(언남동),127.131248,37.2948328
성지초등학교,경기도 용인시 기흥구 강남서로 38(구갈동),127.128392,37.2745282
관곡초등학교,경기도 용인시 기흥구 관곡로 61(구갈동),127.113499,37.2829422
구갈초등학교,경기도 용인시 기흥구 구갈로 36(구갈동),127.111839,37.2774421
신갈초등학교,경기도 용인시 기흥구 신갈로 76(신갈동),127.106699,37.2734116
산양초등학교,경기도 용인시 기흥구 산양로 2(신갈동),127.108588,37.283437
소현초등학교,경기도 용인시 수지구 만현로133번길 78(상현동),127.092358,37.3016161
보정초등학교,경기도 용인시 기흥구 신촌로73번길 28(보정동),127.110886,37.3086307
기흥초등학교,경기도 용인시 기흥구 공세로82번길 5(공세동),127.109664,37.2321997
공세초등학교,경기도 용인시 기흥구 탑실로 86-10(공세동),127.11632,37.2393321
대전계산초등학교,대전광역시 유성구 학하서로 74,127.298864,36.3438567
판곡초등학교,경기도 남양주시 늘을3로 15(호평동),127.242045,37.6600405
호평초등학교,경기도 남양주시 천마산로 63(호평동),127.246648,37.6677558
평동초등학교,경기도 남양주시 호평로68번길 16(호평동),127.247848,37.654428
화진초등학교,경기도 연천군 군남면 청정로 2289,127.040043,38.0302949
남양주신촌초등학교,경기도 남양주시 평내로 122(평내동),127.239766,37.645403
남양주백봉초등학교,경기도 남양주시 의안로 158(평내동),127.241497,37.6437589
남양주동곡초등학교,경기도 남양주시 홍유릉로248번길 56(금곡동),127.203856,37.6286042
도농초등학교,경기도 남양주시 도농로 72(도농동),127.157378,37.6120451
남양주미금초등학교,경기도 남양주시 미금로56번길 32-13(도농동),127.154108,37.6087329
남양주양정초등학교,경기도 남양주시 경춘로 468-33(지금동),127.165996,37.6091058
평내초등학교,경기도 남양주시 경춘로 1292-11(평내동),127.237735,37.6492903
장내초등학교,경기도 남양주시 평내로 64(평내동),127.234851,37.640982
사능초등학교,경기도 남양주시 진건읍 사릉로372번길 2,127.184657,37.6552884
용신초등학교,경기도 남양주시 진건읍 사릉로 474,127.172991,37.6607847
진건초등학교,경기도 남양주시 진건읍 사릉로 408-9,127.1791,37.6576196
가곡초등학교,경기도 남양주시 화도읍 비룡로379번길 3,127.306233,37.6840601
금남초등학교,경기도 남양주시 화도읍 북한강로 1506,127.362334,37.6439821
답내초등학교,경기도 남양주시 화도읍 경춘로2347번길 44-7,127.346955,37.6624508
남양주송라초등학교,경기도 남양주시 화도읍 마석로45번길 33,127.301682,37.6542357
화도초등학교,경기도 남양주시 화도읍 비룡로116번길 24-42,127.308162,37.6631041
천마초등학교,경기도 남양주시 화도읍 경춘로 1707,127.280397,37.6556218
차산초등학교,경기도 남양주시 화도읍 수레로 1105-23,127.301419,37.6363663
마석초등학교,경기도 남양주시 화도읍 수레로 1234-52,127.304948,37.649146
미원초등학교,경기도 가평군 설악면 신천중앙로120번길 11,127.490308,37.6792626
미원초등학교위곡분교장,경기도 가평군 설악면 한서로 233,127.515681,37.6705689
방일초등학교,경기도 가평군 설악면 양방가루재길 76,127.499546,37.6293382
목동초등학교명지분교장,경기도 가평군 북면 가화로 2680,127.454692,37.9709561
미원초등학교장락분교장,경기도 가평군 설악면 미사리로 588,127.540297,37.7036352
은대초등학교,경기도 연천군 전곡읍 은대로 210,127.060349,38.052457
전곡초등학교,경기도 연천군 전곡읍 선사로 433,127.072126,38.0275079
전곡초등학교적동분교장,경기도 연천군 전곡읍 첫마을길 17,127.000749,37.9405498
궁평초등학교,경기도 연천군 청산면 궁평로45번길 52,127.104405,38.0279542
백의초등학교,경기도 연천군 청산면 청창로726번길 38,127.134116,38.0225845
초성초등학교,경기도 연천군 청산면 학담로 104,127.073471,37.9979406
상리초등학교,경기도 연천군 연천읍 상리로 70,127.075743,38.1354032
연천초등학교,경기도 연천군 연천읍 연천로 228,127.075237,38.0973913
군남초등학교,경기도 연천군 군남면 진상17길 46,127.015369,38.0673812
대광초등학교,경기도 연천군 신서면 연신로 1127-1,127.105315,38.1826693
연천왕산초등학교,경기도 연천군 미산면 왕산로 15,127.011368,38.0561851
춘천교육대학교부설초등학교,강원도 춘천시 공지로 316(효자동),127.731405,37.8690313
춘천초등학교,강원도 춘천시 방송길7번길 14-5(중앙로3가),127.721734,37.8746434
교동초등학교,강원도 춘천시 교동길 29(교동),127.737182,37.8806369
효제초등학교,강원도 춘천시 효제길 40(효자동),127.73803,37.8706642
중앙초등학교,강원도 춘천시 중앙로88번길 14(낙원동),127.724241,37.8790186
신탄진용정초등학교,대전광역시 대덕구 대청로 65(신탄진동),127.435188,36.4537847
대전석봉초등학교,대전광역시 대덕구 신탄진남로 20(신탄진동),127.434406,36.4467138
대전화정초등학교,대전광역시 대덕구 한밭대로1024번길 20(오정동),127.411819,36.3568335
대전동산초등학교,대전광역시 대덕구 동산초교로63번길 50(오정동),127.421108,36.350003
대전동도초등학교,대전광역시 대덕구 한남로150번길 27(오정동),127.41182,36.3476943
회덕초등학교,대전광역시 대덕구 대전로 1350(읍내동),127.421098,36.3744053
대전중원초등학교,대전광역시 대덕구 중리로64번길 45(중리동),127.427069,36.365216
기성초등학교,대전광역시 서구 기성초교길 42(매노동),127.337613,36.2490839
대전수미초등학교,대전광역시 서구 괴곡길 42,127.360937,36.2949824
대전서원초등학교,대전광역시 서구 문정로 279(둔산동),127.393736,36.3590693
대전둔원초등학교,대전광역시 서구 대덕대로112번길 10(갈마동),127.374887,36.3426899
대전갈마초등학교,대전광역시 서구 월평동로 2(갈마동),127.368995,36.3562347
대전내동초등학교,대전광역시 서구 동서대로1063번길 13(내동),127.378465,36.3307214
대전변동초등학교,대전광역시 서구 유등로 373(변동),127.384893,36.3247266
일산초등학교,강원도 원주시 일산초교길 1(일산동),127.942107,37.3466276
대전백운초등학교,대전광역시 서구 계룡로576번길 56(괴정동),127.384467,36.3403851
대전탄방초등학교,대전광역시 서구 탄방로 15(탄방동),127.390385,36.3453549
대전원앙초등학교,대전광역시 서구 관저북로 97(관저동),127.336288,36.31109
대전갑천초등학교,대전광역시 서구 월평동로 61(월평동),127.367117,36.3606069
대전월평초등학교,대전광역시 서구 월평서로 22(월평동),127.357367,36.3556034
대전도안초등학교,대전광역시 서구 원도안로 200(도안동),127.344126,36.3214023
대전샘머리초등학교,대전광역시 서구 유등로 879(둔산동),127.392893,36.3630423
가수원초등학교,대전광역시 서구 벌곡로 1359(가수원동),127.352896,36.3025048
대현초등학교,울산광역시 남구 수암로 165-3(야음동),129.32495,35.5281131
대전반석초등학교,대전광역시 유성구 반석동로 30(반석동),127.31257,36.3897232
외삼초등학교,대전광역시 유성구 반석동로 63(반석동),127.310238,36.3925553
대전자운초등학교,대전광역시 유성구 자운로97번길 380(신봉동),127.33769,36.4120892
대전교촌초등학교,대전광역시 유성구 진잠로149번길 42(교촌동),127.316438,36.3056758
대전대정초등학교,대전광역시 유성구 대정로28번길 55(대정동),127.322802,36.3149783
진잠초등학교,대전광역시 유성구 진잠로59번길 53(원내동),127.31451,36.2993284
대전봉명초등학교,대전광역시 유성구 계룡로132번길 62(봉명동),127.34309,36.3492926
대전장대초등학교,대전광역시 유성구 문화원로19번길 16(장대동),127.338834,36.3613533
유성초등학교,대전광역시 유성구 장대로71번길 12(장대동),127.333897,36.3618639
대전상대초등학교,대전광역시 유성구 월드컵대로 322(상대동),127.335817,36.3474797
흥도초등학교,대전광역시 유성구 원신흥남로 20(원신흥동),127.33834,36.3341848
대전원신흥초등학교,대전광역시 유성구 원신흥로55번길 37(원신흥동),127.34226,36.340787
덕송초등학교,대전광역시 유성구 현충원로 265(덕명동),127.301481,36.3611236
대전노은초등학교,대전광역시 유성구 노은동로99번길 35(노은동),127.320793,36.368828
대전수정초등학교,대전광역시 유성구 노은서로 62(노은동),127.313027,36.3659736
대전상지초등학교,대전광역시 유성구 노은동로 165(지족동),127.321332,36.3752255
대전지족초등학교,대전광역시 유성구 노은서로 238(지족동),127.316724,36.3804149
봉암초등학교,대전광역시 유성구 궁동로 21(궁동),127.347476,36.363631
대덕초등학교,대전광역시 유성구 대덕대로556번길 102(도룡동),127.380882,36.3851326
금성초등학교,대전광역시 유성구 신성로72번길 5(신성동),127.349663,36.3889531
대전하기초등학교,대전광역시 유성구 송림로19번길 32(하기동),127.320986,36.388454
천천초등학교,경기도 수원시 장안구 정자로42번길 17(천천동),126.98243,37.300463
교동초등학교,강원도 원주시 명륜로 9,127.946966,37.3384531
서원주초등학교,강원도 원주시 남원로469번길 61(명륜동),127.939871,37.3269855
치악초등학교,강원도 원주시 한지공원길 77(명륜동),127.93945,37.3318808
원주초등학교,강원도 원주시 봉산로 15(봉산동),127.958961,37.3478417
우산초등학교,강원도 원주시 우산초교길 84(우산동),127.933185,37.3693579
태봉초등학교,강원도 원주시 흥양로51번길 113(태장동),127.95655,37.3860572
태장초등학교,강원도 원주시 현충로 260(태장동),127.951278,37.3764046
장양초등학교,강원도 원주시 북원로 2868(태장동),127.953924,37.3984662
학성초등학교,강원도 원주시 천사로 255(학성동),127.95073,37.3543201
원주삼육초등학교,강원도 원주시 북원로 1996(무실동),127.923784,37.3268091
문막초등학교,강원도 원주시 문막읍 건등로 28-11,127.820834,37.3125413
동화초등학교,강원도 원주시 문막읍 왕건로 83,127.828839,37.3275258
반계초등학교,강원도 원주시 문막읍 원문로 2265,127.790639,37.2917468
부론초등학교,강원도 원주시 부론면 법천시장길 58,127.748894,37.2077307
지정초등학교,강원도 원주시 지정면 지정로 103,127.845932,37.3478342
신평초등학교,강원도 원주시 지정면 신무로 336,127.892352,37.3845465
교학초등학교,강원도 원주시 소초면 토동길 20,128.055551,37.4354537
둔둔초등학교,강원도 원주시 소초면 버덩마을길 7,127.979136,37.4465007
소초초등학교,강원도 원주시 소초면 평장안골1길 15,128.003994,37.4173932
흥양초등학교,강원도 원주시 소초면 하초구길 6,127.9972,37.3809355
매지초등학교,강원도 원주시 흥업면 북원로 1324,127.906298,37.2689888
흥업초등학교,강원도 원주시 흥업면 사제로 101,127.908868,37.3071046
천남초등학교,경기도 여주시 대신면 참샘2길 1,127.631395,37.3457139
송촌초등학교,경기도 여주시 대신면 여양1로 237,127.568788,37.411013
북내초등학교,경기도 여주시 북내면 여양2로 304,127.679724,37.3299944
강천초등학교,경기도 여주시 강천면 간매3길 31,127.719502,37.2687559
점동초등학교,경기도 여주시 점동면 청안로 106,127.662871,37.2042595
가남초등학교,경기도 여주시 가남읍 태평4길 2,127.547988,37.2054552
송삼초등학교,경기도 여주시 가남읍 송삼로 165,127.633701,37.1768149
오산초등학교,경기도 여주시 가남읍 양화로 168,127.559073,37.2385591
상품초등학교,경기도 여주시 산북면 금품1로 15,127.445274,37.4045162
북내초등학교운암분교장,경기도 여주시 북내면 당전로 284,127.709793,37.3339104
이포초등학교하호분교장,경기도 여주시 금사면 금품1로 695,127.501775,37.4060917
북내초등학교주암분교장,경기도 여주시 북내면 주암길 14,127.67913,37.3981615
북내초등학교도전분교장,경기도 여주시 강천면 원양1로 716,127.750815,37.3371663
원덕초등학교,경기도 양평군 양평읍 원덕흑천길 180,127.542311,37.4683472
양평동초등학교,경기도 양평군 양평읍 창대길 20-8,127.50733,37.4883945
양평초등학교,경기도 양평군 양평읍 양근로 142,127.485992,37.4934167
서종초등학교,경기도 양평군 서종면 북한강로789번길 8,127.34791,37.608852
대아초등학교,경기도 양평군 양서면 방죽들길 5,127.415445,37.5277563
양서초등학교,경기도 양평군 양서면 양서도곡길 8,127.381908,37.5126261
양수초등학교,경기도 양평군 양서면 용담3길 15,127.325086,37.5448253
옥천초등학교,경기도 양평군 옥천면 옥천길 51,127.459213,37.5195581
용문초등학교,경기도 양평군 용문면 용문로 837,127.632512,37.5098397
옥동초등학교,울산광역시 남구 문수로 401(옥동),129.296422,35.5349705
격동초등학교,울산광역시 남구 문수로344번길 4(옥동),129.290189,35.5339981
월봉초등학교,울산광역시 남구 팔등로115번길 10(신정동),129.318836,35.5482728
봉월초등학교,울산광역시 남구 팔등로115번길 10(신정동),129.206781,35.7019853
반곡초등학교,울산광역시 울주군 언양읍 언동3길 42-3,129.14121,35.6030532
반천초등학교,울산광역시 울주군 언양읍 샘소3길 19,129.182957,35.5561836
영화초등학교,울산광역시 울주군 언양읍 방천9길33,129.115173,35.5674
울주명지초등학교,울산광역시 울주군 범서읍 점촌4길 17,129.237614,35.5722536
호연초등학교,울산광역시 울주군 범서읍 대리로 75,129.249783,35.5687238
구영초등학교,울산광역시 울주군 범서읍 점촌1길 10,129.238835,35.5768302
무거초등학교,울산광역시 울주군 범서읍 장검1길 46,129.25218,35.5526302
굴화초등학교,울산광역시 울주군 범서읍 굴화3길 30,129.260642,35.5538392
척과초등학교,울산광역시 울주군 범서읍 갈매정길 16,129.275901,35.6148642
범서초등학교,울산광역시 울주군 범서읍 천상1길 7,129.230241,35.5648387
천상초등학교,울산광역시 울주군 범서읍 천상7길 28,129.221133,35.5611274
삼평초등학교,울산광역시 울주군 온산읍 삼평길 200,129.322691,35.4061718
온산초등학교,울산광역시 울주군 온산읍 신온9길 16,129.31302,35.4286759
덕신초등학교,울산광역시 울주군 온산읍 서영남1길 27,129.305492,35.4367846
온양초등학교,울산광역시 울주군 온양읍 남창1길 32,129.279554,35.4185544
온남초등학교,울산광역시 울주군 온양읍 화산발리로 734,129.288531,35.4063495
방기초등학교,울산광역시 울주군 삼남면 하방로 56,129.093097,35.5068337
당촌초등학교,경기도 성남시 분당구 분당로 196(분당동),127.131436,37.3737083
정천초등학교,경기도 수원시 장안구 화산로 83(천천동),126.982632,37.2910644
천일초등학교,경기도 수원시 장안구 정자로19번길 13(천천동),126.978078,37.3008175
송정초등학교,경기도 수원시 장안구 송정로 41(송죽동),127.001287,37.2969229
송죽초등학교,경기도 수원시 장안구 송원로41번길 34(송죽동),127.006169,37.3006081
창용초등학교,경기도 수원시 장안구 광교산로140번길 8(연무동),127.031107,37.2993228
상률초등학교,경기도 수원시 장안구 덕영대로417번길 98(율전동),126.969246,37.3046479
율전초등학교,경기도 수원시 장안구 율전로 113(율전동),126.968498,37.2995666
수원동신초등학교,경기도 수원시 장안구 만석로68번길 46(정자동),126.989081,37.2955831
정자초등학교,경기도 수원시 장안구 장안로 191(정자동),126.995331,37.2995759
대평초등학교,경기도 수원시 장안구 대평로 111(정자동),126.99067,37.2976393
송림초등학교,경기도 수원시 장안구 대평로51번길 65(정자동),126.991184,37.2913085
명인초등학교,경기도 수원시 장안구 대평로52번길 21(정자동),126.994715,37.2940923
조원초등학교,경기도 수원시 장안구 금당로 53(조원동),127.016658,37.302997
금정초등학교,경기도 군포시 금정로 40(금정동),126.940865,37.3667719
영화초등학교,경기도 수원시 장안구 경수대로 838(조원동),127.016142,37.296767
파장초등학교,경기도 수원시 장안구 경수대로1081번길 32-9(파장동),126.992254,37.3091003
수일초등학교,경기도 수원시 장안구 수일로 85(파장동),127.000532,37.3107668
곡반초등학교,경기도 수원시 권선구 덕영대로1323번길 26-14(권선동),127.036004,37.2468087
안룡초등학교,경기도 수원시 권선구 곡반정로33번길 21(곡반정동),127.024499,37.233175
탑동초등학교,경기도 수원시 권선구 탑동로 55(탑동),126.972976,37.2735152
효탑초등학교,경기도 수원시 권선구 효탑로16번길 17(탑동),126.975671,37.2663891
수원금곡초등학교,경기도 수원시 권선구 서수원로617번길 30(금곡동),126.952814,37.2798207
상촌초등학교,경기도 수원시 권선구 금곡로31번길 92(금곡동),126.935164,37.2729026
부인초등학교,경기도 부천시 원미구 신상로 16(상동),126.748695,37.489604
용연초등학교,울산광역시 남구 야음로26번길 7(야음동),129.324221,35.525373
여천초등학교,울산광역시 남구 여천로 31(야음동),129.33622,35.5252039
야음초등학교,울산광역시 남구 산업로355번길 111(야음동),129.329361,35.5210035
울산남부초등학교,울산광역시 남구 야음로 11(야음동),129.321893,35.5233551
장생포초등학교,울산광역시 남구 장생포고래로125번길 5(장생포동),129.367795,35.5035499
남산초등학교,울산광역시 남구 거마로 17(옥동),129.295316,35.5367064
옥서초등학교,울산광역시 남구 법대로14번길 19(옥동),129.285138,35.5383514
신복초등학교,울산광역시 남구 신복로 74(무거동),129.253605,35.5503736
옥현초등학교,울산광역시 남구 눌재로 21(무거동),129.277958,35.5502794
동평초등학교,울산광역시 남구 도산로77번길 13-14(달동),129.325394,35.5329212
동백초등학교,울산광역시 남구 신정로 6(달동),129.323909,35.5327018
강남초등학교,울산광역시 남구 중앙로166번길 51(달동),129.318502,35.538084
삼호초등학교,울산광역시 남구 북부순환도로19번길 8(무거동),129.265077,35.5525102
옥산초등학교,울산광역시 남구 옥현로60번길 7(무거동),129.262168,35.5421646
월계초등학교,울산광역시 남구 옥현로 12(무거동),129.258187,35.5384943
삼신초등학교,울산광역시 남구 돋질로251번길 25(삼산동),129.330795,35.5456552
백합초등학교,울산광역시 남구 돋질로339번길 16(삼산동),129.343065,35.5455023
선암초등학교,울산광역시 남구 산업로325번길 4(선암동),129.337298,35.5147563
개운초등학교,울산광역시 남구 두왕로106번길 28-6(선암동),129.31147,35.5133332
월평초등학교,울산광역시 남구 신남로95번길 15(신정동),129.311722,35.5296808
수암초등학교,울산광역시 남구 중앙로 47(신정동),129.316155,35.5258612
성남신흥초등학교,경기도 성남시 수정구 공원로436번길 17(신흥동),127.1438,37.4502527
성남양지초등학교,경기도 성남시 수정구 논골로36번길 33(양지동),127.161718,37.4600043
금빛초등학교,경기도 성남시 수정구 남문로 112(태평동),127.139912,37.447287
성남초등학교,경기도 성남시 수정구 수정로 233(태평동),127.144386,37.4462772
성남서초등학교,경기도 성남시 수정구 태평로 19(태평동),127.129419,37.448616
희망대초등학교,경기도 성남시 수정구 공원로370번길 29(신흥동),127.148607,37.4469263
도촌초등학교,경기도 성남시 중원구 도촌남로 99(도촌동),127.158022,37.4144829
상대원초등학교,경기도 성남시 중원구 순환로214번길 16(상대원동),127.180969,37.4422528
대일초등학교,경기도 성남시 중원구 금상로58번길 22(상대원동),127.163967,37.4387009
하원초등학교,경기도 성남시 중원구 광명로 396(금광동),127.169721,37.4466979
단남초등학교,경기도 성남시 중원구 광명로300번길 25(금광동),127.161189,37.4425919
금상초등학교,경기도 성남시 중원구 금상로 97(금광동),127.166166,37.4431767
성남동초등학교,경기도 성남시 중원구 자혜로32번길 10(금광동),127.162685,37.4492524
중원초등학교,경기도 성남시 중원구 사기막골로31번길 46(상대원동),127.167633,37.4382582
대원초등학교,경기도 성남시 중원구 희망로343번길 24(상대원동),127.155526,37.4366496
성남중앙초등학교,경기도 성남시 중원구 원터로94번길 7(성남동),127.143251,37.4359216
성남은행초등학교,경기도 성남시 중원구 순환로447번길 11(은행동),127.170604,37.4611426
상원초등학교,경기도 성남시 중원구 은행로 6(은행동),127.162609,37.4540636
성남제일초등학교,경기도 성남시 중원구 광명로184번길 23(중앙동),127.149359,37.4383445
검단초등학교,경기도 성남시 중원구 원터로 25(하대원동),127.143721,37.4293382
대하초등학교,경기도 성남시 중원구 시민로 14(하대원동),127.151637,37.431729
성남신기초등학교,경기도 성남시 분당구 황새울로 74(정자동),127.110496,37.3670708
청계초등학교,경기도 과천시 꿈보람길 34(별양동),126.996226,37.4312014
문원초등학교,경기도 과천시 코오롱로 53(별양동),126.995027,37.4238005
서울면남초등학교,서울특별시 중랑구 면목로30나길 38(면목동),127.088251,37.5771956
관문초등학교,경기도 과천시 별양로 180-1(부림동),127.001361,37.4338502
안산진흥초등학교,경기도 안산시 단원구 화정천동로 80(고잔동),126.822284,37.3121056
슬기초등학교,경기도 안산시 단원구 안산천남로 53(고잔동),126.82597,37.3053422
송호초등학교,경기도 안산시 단원구 한양대학로 183(고잔동),126.835448,37.3115291
화랑초등학교,경기도 안산시 단원구 화정천동로 296(와동),126.818683,37.3309699
관산초등학교,경기도 안산시 단원구 원선1로 68(초지동),126.806514,37.3282971
안산호원초등학교,경기도 안산시 단원구 초지1로 100(초지동),126.81875,37.3030887
별망초등학교,경기도 안산시 단원구 초지1로 51(초지동),126.813549,37.3045528
안산원곡초등학교,경기도 안산시 단원구 원곡초교길 9(원곡동),126.795898,37.3291083
안산서초등학교,경기도 안산시 단원구 원선로 67(원곡동),126.799629,37.3311951
고잔초등학교,경기도 안산시 단원구 적금로 182(고잔동),126.82723,37.3242974
안산중앙초등학교,경기도 안산시 단원구 예술대학로 50(고잔동),126.838092,37.3213339
덕성초등학교,경기도 안산시 단원구 예술대학로 119(고잔동),126.83713,37.3277519
원일초등학교,경기도 안산시 단원구 원선로 113(선부동),126.803843,37.3326547
선일초등학교,경기도 안산시 단원구 선이로3길 40(선부동),126.800008,37.3400882
안산석수초등학교,경기도 안산시 단원구 석수로 93(선부동),126.806139,37.3445985
정지초등학교,경기도 안산시 단원구 정지로 57(선부동),126.811342,37.3417176
선부초등학교,경기도 안산시 단원구 달미로 24(선부동),126.813881,37.3380929
안산화정초등학교,경기도 안산시 단원구 화정천서로 545(선부동),126.817401,37.3455675
능길초등학교,경기도 안산시 단원구 신길중앙로3길 8(신길동),126.764099,37.3358343
신길초등학교,경기도 안산시 단원구 새뿔길 100(신길동),126.780609,37.3356555
송전초등학교,경기도 용인시 처인구 이동면 경기동로687번길 14,127.198106,37.1405385
용천초등학교,경기도 용인시 처인구 이동면 백옥대로 612,127.208191,37.1916585
서울동원초등학교,서울특별시 중랑구 송림길 114(망우동),127.105169,37.6046556
서울면북초등학교,서울특별시 중랑구 용마공원로5길 32(망우동),127.103373,37.5942835
서울망우초등학교,서울특별시 중랑구 망우로72길 49(망우동),127.103434,37.598329
서울면일초등학교,서울특별시 중랑구 용마산로100길 13(망우동),127.099657,37.5918827
서울면중초등학교,서울특별시 중랑구 용마산로70길 43(면목동),127.096722,37.5821628
서울중곡초등학교,서울특별시 중랑구 면목로23길 20(면목동),127.083531,37.5743608
서울면동초등학교,서울특별시 중랑구 면목로57길 32(면목동),127.086681,37.5852699
서울중목초등학교,서울특별시 중랑구 동일로 665(면목동),127.079336,37.5899798
서울중랑초등학교,서울특별시 중랑구 봉우재로6길 26(면목동),127.075785,37.5891883
서울원묵초등학교,서울특별시 중랑구 숙선옹주로 109(묵동),127.086107,37.6176806
서울묵현초등학교,서울특별시 중랑구 동일로157길 75(묵동),127.073624,37.6092043
서울신묵초등학교,서울특별시 중랑구 동일로149길 46(묵동),127.075552,37.6071685
서울상봉초등학교,서울특별시 중랑구 동일로126가길 11(상봉동),127.08368,37.5980942
서울신현초등학교,서울특별시 중랑구 봉화산로 188(신내동),127.093585,37.6056498
서울신내초등학교,서울특별시 중랑구 용마산로125나길 22(신내동),127.099981,37.6043774
서울중화초등학교,서울특별시 중랑구 신내로7가길 22(신내동),127.094649,37.6030032
서울봉화초등학교,서울특별시 중랑구 신내로15길 110(신내동),127.092173,37.6133138
서울묵동초등학교,서울특별시 중랑구 동일로138길 27(중화동),127.081438,37.6039917
서울중흥초등학교,서울특별시 중랑구 봉화산로 82(중화동),127.084201,37.6015751
금성초등학교,서울특별시 중랑구 신내로21길 55(신내동),127.089668,37.6150153
추계초등학교,서울특별시 서대문구 북아현로11가길 7(북아현동),126.953077,37.5637391
명지초등학교,서울특별시 서대문구 명지2길 32-20(홍은동),126.928555,37.5833612
용인이동초등학교,경기도 용인시 처인구 이동면 백옥대로587번길 22,127.203748,37.1908408
모현초등학교,경기도 용인시 처인구 모현면 문현로 179,127.228487,37.3432095
왕산초등학교,경기도 용인시 처인구 모현면 백옥대로2366번길 7-8,127.250405,37.3352403
장평초등학교,경기도 용인시 처인구 백암면 한택로 446,127.377478,37.1189867
백암초등학교,경기도 용인시 처인구 백암면 백원로 501,127.36762,37.1637929
백봉초등학교,경기도 용인시 처인구 백암면 죽양대로748번길 12,127.399814,37.1377371
좌항초등학교,경기도 용인시 처인구 원삼면 원양로 603,127.320736,37.2015343
원삼초등학교,경기도 용인시 처인구 원삼면 하사로 1,127.315235,37.163178
남촌초등학교,경기도 용인시 처인구 남사면 천덕산로 330,127.137611,37.1013484
남곡초등학교,경기도 용인시 처인구 남사면 남산로 7,127.167133,37.1402622
백암초등학교수정분교장,경기도 용인시 처인구 백암면 청강가창로105번길 55-12,127.36077,37.1857527
두창초등학교,경기도 용인시 처인구 원삼면 복분로 29,127.343199,37.1580579
군포초등학교,경기도 군포시 군포로 463(당동),126.942686,37.3479701
당동초등학교,경기도 군포시 용호1로 34(당동),126.939619,37.3457822
용호초등학교,경기도 군포시 용호2로 12(당동),126.940779,37.3419839
군포옥천초등학교,경기도 군포시 용호2로54번길 12(당동),126.945086,37.3436
부곡중앙초등학교,경기도 군포시 송부로273번길 7(부곡동),126.941002,37.3227712
당정초등학교,경기도 군포시 고산로151번길 26-24(당정동),126.954778,37.3464471
광정초등학교,경기도 군포시 산본로386번길 5-20(산본동),126.930657,37.3656186
도산초등학교,울산광역시 남구 번영로54번길 25(야음동),129.333154,35.530764
둔전초등학교,경기도 군포시 고산로 542(산본동),126.924178,37.3613429
서울공덕초등학교,서울특별시 마포구 만리재옛길 13(공덕동),126.953578,37.5459266
서울창천초등학교,서울특별시 마포구 백범로1길 56(노고산동),126.939603,37.5548865
서울용강초등학교,서울특별시 마포구 백범로17길 9(대흥동),126.943754,37.5487232
서울마포초등학교,서울특별시 마포구 도화2길 64(도화동),126.949642,37.5387776
서울동교초등학교,서울특별시 마포구 월드컵로25길 86(망원동),126.902589,37.5580959
서울망원초등학교,서울특별시 마포구 방울내로5길 28(망원동),126.901071,37.5607075
서울서강초등학교,서울특별시 마포구 독막로 113(상수동),126.926851,37.5482699
서울하늘초등학교,서울특별시 마포구 월드컵북로 502-14(상암동),126.88077,37.5855353
서울서교초등학교,서울특별시 마포구 와우산로23길 20-27(서교동),126.924974,37.5549247
서울성원초등학교,서울특별시 마포구 월드컵로36길 34(성산동),126.904542,37.5669825
서울성서초등학교,서울특별시 마포구 성미산로7길 24(성산동),126.911386,37.5604451
서울중동초등학교,서울특별시 마포구 월드컵북로 152(성산동),126.911345,37.5666231
서울신석초등학교,서울특별시 마포구 대흥로 33(신수동),126.937889,37.5441612
서울아현초등학교,서울특별시 마포구 굴레방로 6(아현동),126.958637,37.5526252
서울아현초등학교,서울특별시 마포구 굴레방로 6(아현동),126.956539,37.5554229
서울소의초등학교,서울특별시 마포구 마포대로24길 42(아현동),126.960846,37.5522666
서울한서초등학교,서울특별시 마포구 대흥로24바길 27(염리동),126.949636,37.5535191
서울염리초등학교,서울특별시 마포구 토정로37길 37(염리동),126.945885,37.5424465
서울신북초등학교,서울특별시 마포구 월드컵북로38길 26(중동),126.904745,37.5709567
서울성산초등학교,서울특별시 마포구 양화로3길 94(합정동),126.911084,37.5532958
수리초등학교,경기도 군포시 수리산로 125(산본동),126.917997,37.3601622
도장초등학교,경기도 군포시 번영로 371(산본동),126.924023,37.3486229
오금초등학교,경기도 군포시 번영로 366(산본동),126.925913,37.3477313
궁내초등학교,경기도 군포시 수리산로 187(산본동),126.92031,37.3644797
태을초등학교,경기도 군포시 산본로 451-49(산본동),126.926299,37.371701
군포화산초등학교,경기도 군포시 오금로 48(금정동),126.934231,37.353178
군포양정초등학교,경기도 군포시 오금로 131(금정동),126.940414,37.3594823
흥진초등학교,경기도 군포시 오금로 15-40(금정동),126.928601,37.3536693
군포대야초등학교,경기도 군포시 대야2로 148(대야미동),126.915235,37.3293376
둔대초등학교,경기도 군포시 호수로 305-14(둔대동),126.911273,37.327002
산본초등학교,경기도 군포시 산본로386번길 60(산본동),126.934336,37.3685255
한얼초등학교,경기도 군포시 산본천로 136(산본동),126.935606,37.3660368
관모초등학교,경기도 군포시 곡란로8번길 35-22(산본동),126.938179,37.3760118
곡란초등학교,경기도 군포시 고산로677번길 24-42(산본동),126.933716,37.3739139
능내초등학교,경기도 군포시 수리산로 37(산본동),126.921162,37.3546909
포일초등학교,경기도 의왕시 포일세거리로 51(포일동),126.985754,37.399386
왕곡초등학교,경기도 의왕시 왕곡로 58(왕곡동),126.98059,37.3453499
의왕부곡초등학교,경기도 의왕시 철도박물관로 143(삼동),126.950085,37.3159352
오전초등학교,경기도 의왕시 찬우물길 49(오전동),126.972412,37.3545798
내손초등학교,경기도 의왕시 내손순환로 175(내손동),126.981723,37.3886307
갈뫼초등학교,경기도 의왕시 갈미로 27(내손동),126.972211,37.3766279
초림초등학교,경기도 성남시 분당구 수내로90번길 26(수내동),127.117863,37.3767328
고천초등학교,경기도 의왕시 효행로 10(고천동),126.975344,37.3485866
서울북한산초등학교,서울특별시 은평구 대서문길 42-3(진관동),126.950182,37.6540522
서울갈현초등학교,서울특별시 은평구 연서로29길 31(갈현동),126.916709,37.6192587
서울구현초등학교,서울특별시 은평구 갈현로15길 51(구산동),126.905787,37.6099512
서울구산초등학교,서울특별시 은평구 서오릉로15길 16(구산동),126.909452,37.6123779
서울은평초등학교,서울특별시 은평구 은평로 239(녹번동),126.934469,37.6020459
서울녹번초등학교,서울특별시 은평구 녹번로1길 1(녹번동),126.926285,37.6041352
서울수리초등학교,서울특별시 은평구 불광로14길 10-10(불광동),126.934178,37.6202954
서울대조초등학교,서울특별시 은평구 연서로18길 17(대조동),126.919588,37.6128768
서울연신초등학교,서울특별시 은평구 연서로 347(불광동),126.928547,37.6266672
서울연천초등학교,서울특별시 은평구 연서로34길 22(불광동),126.929482,37.6208125
서울연광초등학교,서울특별시 은평구 연서로35길 37(불광동),126.924427,37.6240017
서울수색초등학교,서울특별시 은평구 수색로16길 21(수색동),126.89563,37.5849498
서울신사초등학교,서울특별시 은평구 가좌로 275-2(신사동),126.912304,37.5928019
서울서신초등학교,서울특별시 은평구 은평터널로 150(신사동),126.907484,37.5923285
서울상신초등학교,서울특별시 은평구 가좌로 361(신사동),126.905044,37.597808
서울역촌초등학교,서울특별시 은평구 은평로3길 25(역촌동),126.914372,37.6016815
서울은명초등학교,서울특별시 은평구 은평로4길 21-9(응암동),126.918456,37.5976968
서울휘경초등학교,서울특별시 동대문구 망우로6길 48(휘경동),127.058122,37.5857358
서울동답초등학교,서울특별시 동대문구 답십리로60길 12(답십리동),127.064574,37.5721138
서울답십리초등학교,서울특별시 동대문구 전농로3길 23(답십리동),127.055608,37.568725
의왕덕성초등학교,경기도 의왕시 덕영대로 123(삼동),126.958209,37.321366
모락초등학교,경기도 의왕시 보식골로 40(오전동),126.973299,37.3584322
의왕초등학교,경기도 의왕시 모락로 56(오전동),126.968187,37.363557
덕장초등학교,경기도 의왕시 덕장로 33(청계동),126.997268,37.3921377
신천초등학교,경기도 시흥시 포도원로 88(신천동),126.782923,37.4350625
시흥매화초등학교,경기도 시흥시 매화1로 62(매화동),126.808004,37.4160894
계수초등학교,경기도 시흥시 계수로 203(계수동),126.820472,37.4530582
승지초등학교,경기도 시흥시 승지로 110(능곡동),126.812541,37.3725961
시흥능곡초등학교,경기도 시흥시 능곡중앙로 22(능곡동),126.812527,37.3656217
하중초등학교,경기도 시흥시 하중로209번길 10(하중동),126.807025,37.3930126
연성초등학교,경기도 시흥시 나분들길 44(광석동),126.818493,37.3875951
군자초등학교,경기도 시흥시 군자로 539(거모동),126.787174,37.3437124
진말초등학교,경기도 시흥시 황고개로 567(장곡동),126.788058,37.3806559
시흥월곶초등학교,경기도 시흥시 월곶해안로 69(월곶동),126.737064,37.3916471
함현초등학교,경기도 시흥시 역전로 455(정왕동),126.73759,37.3649276
송운초등학교,경기도 시흥시 옥구천동로 433-25(정왕동),126.729872,37.3600154
서촌초등학교,경기도 시흥시 정왕대로118번길 27(정왕동),126.727289,37.3491841
군서초등학교,경기도 시흥시 정왕천로427번길 30(정왕동),126.751307,37.3471781
시화초등학교,경기도 시흥시 큰솔로7번길 10(정왕동),126.751258,37.3391852
서해초등학교,경기도 시흥시 정왕대로53번길 14(정왕동),126.724726,37.3559594
시흥초등학교,경기도 시흥시 정왕대로143번길 15(정왕동),126.731622,37.3519337
냉정초등학교,경기도 시흥시 역전로 369(정왕동),126.734844,37.3576809
옥터초등학교,경기도 시흥시 옥터로 33(정왕동),126.692287,37.344793
덕인초등학교,경기도 안산시 단원구 와동공원로5안길 22-6(와동),126.824378,37.3399901
서울신답초등학교,서울특별시 동대문구 천호대로 177(답십리동),127.043399,37.5730006
서울용두초등학교,서울특별시 동대문구 천호대로13길 43(용두동),127.028978,37.5756461
서울이문초등학교,서울특별시 동대문구 신이문로 16(이문동),127.06404,37.6022446
서울군자초등학교,서울특별시 동대문구 한천로6길 21(장안동),127.061347,37.5643015
서울장평초등학교,서울특별시 동대문구 답십리로69길 27(장안동),127.073324,37.5738074
서울안평초등학교,서울특별시 동대문구 장한로14길 61(장안동),127.071815,37.5657116
서울배봉초등학교,서울특별시 동대문구 사가정로 193(전농동),127.066244,37.5798986
서울전동초등학교,서울특별시 동대문구 전농로16길 61(전농동),127.061479,37.5793657
서울전곡초등학교,서울특별시 동대문구 전농로 172(전농동),127.056468,37.5804021
서울전농초등학교,서울특별시 동대문구 사가정로 66(전농동),127.054409,37.5744176
서울홍파초등학교,서울특별시 동대문구 고산자로 518(제기동),127.039378,37.5862225
서울종암초등학교,서울특별시 동대문구 무학로44길 25(제기동),127.031256,37.5818698
서울홍릉초등학교,서울특별시 동대문구 회기로 90(청량리동),127.047197,37.5909805
서울청량초등학교,서울특별시 동대문구 회기로25길 31(회기동),127.05562,37.592033
서울휘봉초등학교,서울특별시 동대문구 장안벚꽃로 309(휘경동),127.070125,37.5860949
경희초등학교,서울특별시 동대문구 경희대로 26(회기동),127.048767,37.5945574
서울삼육초등학교,서울특별시 동대문구 회기로10길 63(회기동),127.047836,37.5891291
서울면목초등학교,서울특별시 중랑구 면목로 434(면목동),127.087715,37.5911342
서울응암초등학교,서울특별시 은평구 가좌로6길 20(응암동),126.921467,37.5883773
서울증산초등학교,서울특별시 은평구 증산서길 61(증산동),126.904519,37.5824138
서울대은초등학교,서울특별시 은평구 통일로69길 12-15(대조동),126.926239,37.6118365
목감초등학교,경기도 시흥시 목감초등길 49(논곡동),126.858887,37.38682
대야초등학교,경기도 시흥시 대골안길 31(대야동),126.789528,37.4466185
도창초등학교,경기도 시흥시 수인로2793번길 6(도창동),126.823998,37.4067883
시흥신일초등학교,경기도 시흥시 신천로7번길 12(신천동),126.791415,37.4326176
시흥도원초등학교,경기도 시흥시 수인로3413번길 34(신천동),126.777752,37.4397036
소래초등학교,경기도 시흥시 호현로27번길 14(신천동),126.784145,37.4433917
월포초등학교,경기도 시흥시 월곶중앙로 18(월곶동),126.742982,37.3875112
웃터골초등학교,경기도 시흥시 은행고길 18(은행동),126.799308,37.4398012
검바위초등학교,경기도 시흥시 수인로3247번길 59(은행동),126.798889,37.4326751
시흥은행초등학교,경기도 시흥시 대은로104번길 29-10(은행동),126.800864,37.4423639
금모래초등학교,경기도 시흥시 대은로 16-29(은행동),126.795447,37.4418674
장곡초등학교,경기도 시흥시 장곡로70번길 12(장곡동),126.781975,37.381233
시흥장현초등학교,경기도 시흥시 시청로80번길 5(장현동),126.798834,37.3819009
정왕초등학교,경기도 시흥시 중심상가로 257(정왕동),126.743039,37.3407923
포리초등학교,경기도 시흥시 신현로202번길 31(포동),126.771203,37.4054771
은계초등학교,경기도 시흥시 대은로103번길 24(대야동),126.797766,37.447452
평택초등학교,경기도 평택시 원평2로 4(평택동),127.081149,36.9893893
합정초등학교,경기도 평택시 평택4로 11(합정동),127.097876,36.9893803
죽백초등학교,경기도 평택시 죽백1길 41(죽백동),127.137274,37.0134483
군문초등학교,경기도 평택시 원평로 21(군문동),127.085195,36.9879549
용이초등학교,경기도 평택시 현신7길 36(용이동),127.146591,36.9999593
동삭초등학교,경기도 평택시 동삭로 370(동삭동),127.096925,37.0184744
소사벌초등학교,경기도 평택시 동부공원로 59(비전동),127.116767,36.995167
평택성동초등학교,경기도 평택시 중앙로 89(비전동),127.093089,36.9948323
홍원초등학교,경기도 평택시 포승읍 외원길 26,126.889213,37.0143133
선일초등학교,서울특별시 은평구 갈현로29길 27(갈현동),126.913169,37.6198752
예일초등학교,서울특별시 은평구 연서로 117(구산동),126.914343,37.6102745
은혜초등학교,서울특별시 은평구 통일로78가길 20(불광동),126.927574,37.6177328
서울미동초등학교,서울특별시 서대문구 충정로 52(미근동),126.965851,37.5631108
서울금화초등학교,서울특별시 서대문구 통일로 165(천연동),126.963307,37.5682771
서울홍은초등학교,서울특별시 서대문구 세검정로 105(홍제동),126.949743,37.5974198
서울홍제초등학교,서울특별시 서대문구 홍은중앙로 13(홍은동),126.944406,37.5930778
서울연가초등학교,서울특별시 서대문구 증가로12가길 49-50(남가좌동),126.918116,37.5798903
서울대신초등학교,서울특별시 서대문구 이화여대2길 27(대현동),126.947738,37.5579503
서울북가좌초등학교,서울특별시 서대문구 거북골로19길 20(북가좌동),126.90759,37.5778354
서울연희초등학교,서울특별시 서대문구 연희로 136(연희동),126.933894,37.5692366
서울창서초등학교,서울특별시 서대문구 연세로5나길 30-3(창천동),126.933965,37.5576122
서울홍연초등학교,서울특별시 서대문구 백련사길 55(홍은동),126.931055,37.581715
서울안산초등학교,서울특별시 서대문구 통일로 321(홍제동),126.951545,37.5793404
서울인왕초등학교,서울특별시 서대문구 세무서길 33-9(홍제동),126.944789,37.5902301
경기초등학교,서울특별시 서대문구 경기대로9길 10(충정로2가),126.962771,37.5652834
이화여자대학교사범대학부속초등학교,서울특별시 서대문구 성산로 512-39(대신동),126.94275,37.5609965
삼산초등학교,울산광역시 남구 남중로108번길 19(삼산동),129.349711,35.5444038
청솔초등학교,울산광역시 남구 삼산로94번길 20(달동),129.317583,35.5331814
활초초등학교,경기도 화성시 남양읍 안석길111번길 106,126.825539,37.17879
신흥초등학교,경기도 군포시 고산로 470(산본동),126.926727,37.3562166
덕동초등학교,경기도 평택시 매봉산1길 5(비전동),127.107029,36.9974069
평택중앙초등학교,경기도 평택시 세교로 11(세교동),127.07775,37.0020401
세교초등학교,경기도 평택시 세교공원로 32(세교동),127.082716,37.0021207
평일초등학교,경기도 평택시 평남로 626(합정동),127.107105,36.9900869
복창초등학교,경기도 평택시 서정북로 3(서정동),127.049843,37.0709836
장당초등학교,경기도 평택시 송탄로 46(장당동),127.057475,37.0500784
반지초등학교,경기도 평택시 이충로 7(이충동),127.069445,37.0578179
송탄초등학교,경기도 평택시 막곡길 67(가재동),127.086819,37.0422876
송현초등학교,경기도 평택시 경기대로 1432(지산동),127.066774,37.0723895
평택지산초등학교,경기도 평택시 지산2로 57(지산동),127.061976,37.0771714
송북초등학교,경기도 평택시 지산로 90(지산동),127.065482,37.0802452
송신초등학교,경기도 평택시 송월로32번길 32(신장동),127.051497,37.0754226
서정리초등학교,경기도 평택시 서두물로 21(서정동),127.057156,37.0583609
송일초등학교,경기도 평택시 송일로 6(서정동),127.058997,37.062804
지장초등학교,경기도 평택시 지장로 15(서정동),127.057445,37.0680549
이충초등학교,경기도 평택시 이충로 93-5(이충동),127.066873,37.0631608
부용초등학교,경기도 평택시 팽성읍 동서촌로 65,127.059121,36.9657427
팽성초등학교,경기도 평택시 팽성읍 송화2길 2,127.051433,36.9504504
평택송화초등학교,경기도 평택시 팽성읍 송화택지로25번길 14,127.056881,36.9628368
계성초등학교,경기도 평택시 팽성읍 계성새싹길 85,127.007007,36.9428241
내기초등학교,경기도 평택시 포승읍 내기새싹길 23,126.872516,36.9794756
원정초등학교,경기도 평택시 포승읍 평택항로 469,126.841645,36.9940283
평택도곡초등학교,경기도 평택시 포승읍 여술로44번길 5,126.847703,36.9888384
병점초등학교,경기도 화성시 경기대로 1052(진안동),127.034872,37.2100791
안중초등학교,경기도 평택시 안중읍 안중로 89,126.925759,36.9895447
백운초등학교,경기도 의왕시 백운초등길 4(내손동),126.974739,37.3858982
평택안일초등학교,경기도 평택시 안중읍 안중로 13,126.924097,36.9826553
현화초등학교,경기도 평택시 안중읍 안현로서7길 80,126.918818,36.9822221
현일초등학교,경기도 평택시 안중읍 현화중앙길 83,126.919845,36.9860502
내기초등학교신영분교장,경기도 평택시 포승읍 신영새싹길 86-29,126.877777,36.9557522
가사초등학교,경기도 평택시 현덕면 기산2길 16,126.916806,36.9382968
현덕초등학교,경기도 평택시 현덕면 현덕로 1254,126.921064,36.9657954
청북초등학교,경기도 평택시 청북면 청북새싹길 25,126.935076,37.043333
청옥초등학교,경기도 평택시 청북면 안청로1길 76,126.911745,37.0190794
삼덕초등학교,경기도 평택시 청북면 청북중앙로 226,126.911903,37.0400343
어연초등학교,경기도 평택시 청북면 청원로 446,126.977617,37.0496225
효덕초등학교,경기도 평택시 고덕면 효덕새싹길 6-5,127.035808,37.0167094
종덕초등학교,경기도 평택시 고덕면 청원로 802,127.015891,37.0572321
서탄초등학교,경기도 평택시 서탄면 금암2길 121,127.035832,37.1073282
갈곶초등학교,경기도 평택시 진위면 엘지로 57,127.071977,37.1255034
진위초등학교,경기도 평택시 진위면 봉남길 49,127.089959,37.1007188
창신초등학교,경기도 평택시 오성면 창신뜰길 138,127.006503,37.0042253
오성초등학교,경기도 평택시 오성면 숙성시장길 15,126.978606,37.0080015
현덕초등학교광덕분교장,경기도 평택시 현덕면 현덕로 934,126.94384,36.9439993
서탄초등학교내수분교장,경기도 평택시 서탄면 수월암3길 61,127.015685,37.1191219
진위초등학교산대분교장,경기도 평택시 진위면 은산3길 46,127.121035,37.0840158
남양초등학교,경기도 화성시 남양읍 남양시장로55번길 7,126.815441,37.2100395
동양초등학교,경기도 화성시 남양읍 시청로45번길 11,126.822287,37.2067629
반석초등학교,경기도 화성시 동탄반석로 22(반송동),127.0782,37.1936879
도일초등학교,경기도 시흥시 군자로465번길 7(거모동),126.78192,37.3489567
솔빛초등학교,경기도 화성시 동탄반석로 84(반송동),127.073699,37.1965943
반송초등학교,경기도 화성시 동탄솔빛로 14(반송동),127.07021,37.1906806
석우초등학교,경기도 화성시 동탄시범한빛길 32(반송동),127.067971,37.2090357
숲속초등학교,경기도 화성시 동탄공원로2길 10(반송동),127.060346,37.2057689
화성금곡초등학교,경기도 화성시 동탄문화센터로 13(반송동),127.066621,37.1987171
학동초등학교,경기도 화성시 동탄지성로 79-17(반송동),127.065939,37.2051195
예당초등학교,경기도 화성시 동탄반석로 245(석우동),127.075418,37.2103709
기안초등학교,경기도 화성시 기안길 18(기안동),126.982127,37.2249274
능동초등학교,경기도 화성시 동탄원천로 315-27(능동),127.058713,37.2131515
푸른초등학교,경기도 화성시 동탄공원로 21-38(능동),127.05529,37.2021726
한마음초등학교,경기도 화성시 동탄숲속로 69-6(능동),127.056116,37.2084798
동학초등학교,경기도 화성시 영통로27번길 46(반월동),127.059473,37.2328269
기산초등학교,경기도 화성시 동탄지성로 344(반월동),127.050636,37.2244323
율목초등학교,경기도 화성시 영통로50번길 19(반월동),127.06435,37.2366107
배양초등학교,경기도 화성시 융건로 90(배양동),126.989218,37.2186161
화성벌말초등학교,경기도 화성시 떡전골로 34(병점동),127.037891,37.2024153
송화초등학교,경기도 화성시 병점중앙로35번길 42(병점동),127.040257,37.2020699
태안초등학교,경기도 화성시 병점3로 77(병점동),127.041012,37.2105278
안화초등학교,경기도 화성시 병점3로 132-5(병점동),127.047185,37.2126336
구봉초등학교,경기도 화성시 병점1로 105(병점동),127.044965,37.2054911
화산초등학교,경기도 화성시 화산중앙로64번길 17(송산동),127.014123,37.2108665
안녕초등학교,경기도 화성시 화산로 2(안녕동),127.008957,37.2056784
진안초등학교,경기도 화성시 병점4로 97(진안동),127.04069,37.2168007
비전초등학교,경기도 평택시 비전1로57번길 63(비전동),127.093256,37.0011276
봉담초등학교,경기도 화성시 봉담읍 진등3길 15,126.947096,37.2226177
갈담초등학교,경기도 화성시 봉담읍 갈담초교길 24,126.93306,37.1749821
와우초등학교,경기도 화성시 봉담읍 식골길 14,126.972137,37.2202141
상봉초등학교,경기도 화성시 봉담읍 상봉길 52,126.954696,37.2180212
동화초등학교,경기도 화성시 봉담읍 동화새터길 130,126.961636,37.215126
수기초등학교,경기도 화성시 봉담읍 수기웃말길 27,126.980632,37.2013787
도이초등학교,경기도 화성시 향남읍 행정동로 87,126.926131,37.1324972
행정초등학교,경기도 화성시 향남읍 행정중앙1로 77,126.923788,37.1264956
갈천초등학교,경기도 화성시 향남읍 발안로 701-23,126.98064,37.1273535
제암초등학교,경기도 화성시 향남읍 발안서로 21,126.902325,37.1310482
발안초등학교,경기도 화성시 향남읍 발안로 8,126.911834,37.1303991
한울초등학교,경기도 화성시 향남읍 행정중앙1로 25,126.917785,37.1266978
석천초등학교,경기도 화성시 우정읍 석천길 52,126.788953,37.0549114
우정초등학교,경기도 화성시 우정읍 버들로 138-10,126.800724,37.0814687
화성화수초등학교,경기도 화성시 우정읍 화수동길 145,126.797211,37.1087018
동탄초등학교,경기도 화성시 동부대로970번가길 24 -44 31(오산동),127.091426,37.1889971
송라초등학교,경기도 화성시 매송면 푸른들판로 1970-16,126.888884,37.2726231
화성매송초등학교,경기도 화성시 매송면 화성로 2403,126.928378,37.2493137
비봉초등학교,경기도 화성시 비봉면 양노로 71,126.869367,37.2367278
청룡초등학교,경기도 화성시 비봉면 주석로 610,126.888754,37.2012106
도곡초등학교,경기도 광주시 초월읍 경충대로 1033-13,127.299498,37.3706162
청원초등학교,경기도 화성시 마도면 해운로 794,126.76139,37.1879334
고정초등학교,경기도 화성시 송산면 공룡로 326,126.738112,37.2380901
마산초등학교,경기도 화성시 송산면 송산포도로 582,126.692534,37.2312524
송산초등학교,경기도 화성시 송산면 사강시장길 15-9,126.732601,37.2143201
해운초등학교,경기도 화성시 서신면 궁평항로 1374-6,126.703627,37.1394215
팔탄초등학교,경기도 화성시 팔탄면 마당바위로31번길 6,126.902424,37.1596107
화성월문초등학교,경기도 화성시 팔탄면 버들로 1537,126.872698,37.1182365
사창초등학교,경기도 화성시 양감면 정문회화로 7,126.972956,37.0916122
양감초등학교,경기도 화성시 양감면 초록로 49,126.951804,37.0812695
화성장안초등학교,경기도 화성시 장안면 조암동로 8-5,126.824031,37.085729
노진초등학교,경기도 화성시 장안면 화곡로 166,126.808937,37.051394
장명초등학교,경기도 화성시 장안면 장명길 19-8,126.852421,37.0561589
정남초등학교,경기도 화성시 정남면 만년로 516,126.984856,37.1676611
팔탄초등학교대방분교장,경기도 화성시 팔탄면 노하길 398,126.870302,37.1617377
가수초등학교,경기도 오산시 가수로 50(가수동),127.047743,37.1480131
장명초등학교장일분교장,경기도 화성시 장안면 온수골2길 18,126.845501,37.0369136
서신초등학교제부분교장,경기도 화성시 서신면 제부말길 74,126.626937,37.1702001
성호초등학교,경기도 오산시 성호새싹길 8(오산동),127.070944,37.1500934
운산초등학교,경기도 오산시 운암로 72(오산동),127.077447,37.1526168
운천초등학교,경기도 오산시 운암로 116(부산동),127.079218,37.1561759
오산원당초등학교,경기도 오산시 부원로87번길 37-7(원동),127.090924,37.1419862
연풍초등학교,경기도 파주시 파주읍 연풍초교길 25,126.834712,37.8307355
운암초등학교,경기도 오산시 원동로 63(원동),127.076202,37.1437376
대호초등학교,경기도 오산시 궐리사로46번길 3(궐동),127.057837,37.1591288
오산초등학교,경기도 오산시 가수로 16(가수동),127.050053,37.1449612
광성초등학교,경기도 오산시 수목원로 577-18(세교동),127.04008,37.183901
금암초등학교,경기도 오산시 수청로 204-20(금암동),127.044054,37.1784557
필봉초등학교,경기도 오산시 수청로 124(금암동),127.052568,37.1786037
양산초등학교,경기도 오산시 양산로 448(양산동),127.032151,37.1969469
문시초등학교,경기도 오산시 여계산로 52-6(금암동),127.045746,37.1740703
화성초등학교,경기도 오산시 내삼미로 18(수청동),127.068682,37.164607
수청초등학교,경기도 오산시 수청로 11-17(수청동),127.05571,37.1707634
매홀초등학교,경기도 오산시 청학로147번길 10(수청동),127.06364,37.1624767
오산대원초등학교,경기도 오산시 경기대로25번길 45(갈곶동),127.07105,37.1304591
오산고현초등학교,경기도 오산시 남부대로 459(고현동),127.085606,37.1334449
오산원일초등학교,경기도 오산시 오산로132번길 27(원동),127.071249,37.1394666
매홀초등학교삼미분교장,경기도 오산시 외삼미로 60-11(외삼미동),127.060353,37.1912943
도덕초등학교,경기도 광명시 가마산로 28(철산동),126.87031,37.484272
충현초등학교,경기도 광명시 성채안로 16(소하동),126.886303,37.4329875
구름산초등학교,경기도 광명시 한내일로 5(소하동),126.884136,37.4528967
소하초등학교,경기도 광명시 소하일로 45(소하동),126.887373,37.4489929
안현초등학교,경기도 광명시 도덕공원로 5(하안동),126.867643,37.4707076
하안초등학교,경기도 광명시 안현로 16(하안동),126.874176,37.4627844
가림초등학교,경기도 광명시 금당로 11-7(하안동),126.879117,37.4583179
산곡초등학교,경기도 하남시 하남대로302번길 45(하산곡동),127.234267,37.503888
안서초등학교,경기도 광명시 가학로 247-55(가학동),126.871212,37.4026649
온신초등학교,경기도 광명시 범안로 657(노온사동),126.846273,37.4425785
광명초등학교,경기도 광명시 광이로 21(광명동),126.857766,37.4803592
광명서초등학교,경기도 광명시 너부대로 5(광명동),126.846844,37.4781649
광명남초등학교,경기도 광명시 광명로 866-9(광명동),126.853861,37.4755251
광일초등학교,경기도 광명시 목감로 34-6(광명동),126.84668,37.4712778
광문초등학교,경기도 광명시 덕단이로 29(광명동),126.851548,37.4665771
서면초등학교,경기도 광명시 오리로 402(소하동),126.880192,37.4384746
광명동초등학교,경기도 광명시 연서일로 25(철산동),126.863258,37.4834627
광명북초등학교,경기도 광명시 시청로138번길 8(철산동),126.868059,37.4866882
광명광성초등학교,경기도 광명시 철산로 59(철산동),126.872864,37.4782962
광명광덕초등학교,경기도 광명시 오리로841번길 9(철산동),126.865932,37.4733162
철산초등학교,경기도 광명시 하안로 392(철산동),126.874871,37.4694164
하안남초등학교,경기도 광명시 금당로 71(하안동),126.885524,37.4618601
하일초등학교,경기도 광명시 철망산로 68(하안동),126.876671,37.4687991
하안북초등학교,경기도 광명시 가림로 18(하안동),126.869479,37.4642087
벌원초등학교,경기도 광주시 회안대로 621-36(탄벌동),127.23657,37.4093626
경안초등학교,경기도 광주시 경안로 163(경안동),127.247371,37.4114855
광남초등학교,경기도 광주시 고불로46번길 15(중대동),127.230597,37.3943916
탄벌초등학교,경기도 광주시 이배재로 20-12(탄벌동),127.248514,37.419896
쌍령초등학교,경기도 광주시 경충대로1422번길 71(쌍령동),127.281177,37.3988225
광주초등학교,경기도 광주시 경안안길58번길 3(경안동),127.255201,37.4103537
태전초등학교,경기도 광주시 태봉로 56(태전동),127.226457,37.388946
가좌초등학교,경기도 고양시 일산서구 가좌2로 31(가좌동),126.720954,37.6883978
마도초등학교,경기도 화성시 마도면 석교로 157,126.77323,37.2039544
해솔초등학교,경기도 파주시 해솔로 40(목동동),126.747192,37.7266654
심학초등학교,경기도 파주시 교하로681번길 33(동패동),126.704094,37.7079998
두일초등학교,경기도 파주시 책향기숲길 47(동패동),126.713586,37.7198347
파주와동초등학교,경기도 파주시 금바위로 17(와동동),126.756609,37.7265848
가온초등학교,경기도 파주시 가온로 134(목동동),126.747041,37.7204733
운광초등학교,경기도 파주시 한울로 90(동패동),126.74084,37.7092175
와석초등학교,경기도 파주시 한빛로 7(야당동),126.753169,37.7104747
파주초등학교,경기도 파주시 파주읍 우계로53번길 15,126.815659,37.8323476
법원초등학교,경기도 파주시 법원읍 술이홀로 970-9,126.88032,37.8564142
자유초등학교,경기도 파주시 문산읍 방촌로 1722,126.786242,37.8653038
문산초등학교,경기도 파주시 문산읍 문향로67번길 58,126.783169,37.8607852
임진초등학교,경기도 파주시 문산읍 문향로17번길 36,126.78419,37.854651
문산동초등학교,경기도 파주시 문산읍 선유울3길 85,126.797918,37.8650991
영도초등학교,경기도 파주시 월롱면 도감로172번길 89,126.803662,37.787294
신산초등학교,경기도 파주시 광탄면 심궁로 13,126.852767,37.7804657